ZACUBE-2                
1 43907U 18111AH  22309.90218666  .00018538  00000+0  63333-3 0  9994
2 43907  97.1675 191.2011 0017055 300.3340 188.3573 15.30202113214905
LUME 1                  
1 43908U 18111AJ  22309.23544268  .00019674  00000+0  60710-3 0  9999
2 43908  97.1697 192.6873 0015016 294.8110  65.1571 15.33492255214943
AOBA VELOX-IV           
1 43940U 19003J   22309.85054676  .00058923  00000+0  11928-2 0  9999
2 43940  97.1126 342.1249 0013396   0.5903 359.5360 15.46138596211904
MOVE-IIB                
1 44398U 19038N   22309.81815717  .00027621  00000+0  11840-2 0  9996
2 44398  97.6456 280.8980 0020222   5.6996 354.4467 15.22535053184518
SONATE                  
1 44400U 19038Q   22309.77939091  .00011282  00000+0  58456-3 0  9998
2 44400  97.6543 279.1719 0023302  11.7527 348.4246 15.16121776184334
LUCKY-7                 
1 44406U 19038W   22309.68077613  .00012078  00000+0  60426-3 0  9991
2 44406  97.6561 279.7642 0022189   9.1533 351.0100 15.17356524184365
BEESAT 9                
1 44412U 19038AC  22309.72367113  .00016710  00000+0  78635-3 0  9998
2 44412  97.6529 280.3826 0019719  13.4551 346.7205 15.19455156184125
JAISAT-1                
1 44419U 19038F   22309.73140217  .00017010  00000+0  79019-3 0  9991
2 44419  97.6527 281.3365 0018562  10.8544 349.3087 15.19917844184491
DUCHIFAT-3              
1 44854U 19089C   22309.48514788  .00007829  00000+0  58820-3 0  9994
2 44854  36.9662 343.6820 0008160 285.2794  74.7032 15.02184671159145
EYESAT-NANO             
1 44877U 19092E   22309.75978474  .00019960  00000+0  78132-3 0  9996
2 44877  97.4609 133.4371 0009999 216.8199 143.2353 15.25804638159885
ORBITAL FACTORY 2 (OF-2)
1 45113U 19071C   22309.64419562  .00067504  00000+0  98369-3 0  9994
2 45113  51.6347  80.7454 0009859 323.4496  36.5821 15.55024970155264
M2 PATHFINDER           
1 45727U 20037E   22309.44007719  .00003391  00000+0  33593-3 0  9996
2 45727  97.7414 122.4470 0011431 289.7666  70.2379 14.92439180127855
NETSAT-4                
1 46504U 20068U   22309.57478806  .00006791  00000+0  49091-3 0  9994
2 46504  97.7336 249.2375 0010854 202.6139 157.4614 15.04329423115254
NETSAT-3                
1 46505U 20068V   22309.59435823  .00006154  00000+0  44613-3 0  9997
2 46505  97.7335 249.1531 0009613 211.5437 148.5225 15.04272126115265
NETSAT-1                
1 46506U 20068W   22309.54963343  .00005779  00000+0  41990-3 0  9993
2 46506  97.7342 249.0233 0007059 217.9041 142.1722 15.04228055115258
NETSAT-2                
1 46507U 20068X   22309.56070303  .00006328  00000+0  45944-3 0  9995
2 46507  97.7336 249.0263 0006723 225.0368 135.0314 15.04225290115205
SAI-1 NANOCONNECT-2     
1 47701U 21015C   22309.16276694  .00023457  00000+0  78468-3 0  9991
2 47701  97.4126  25.6118 0009403 319.4377  40.6163 15.30939226 93713
WILDTRACKCUBE-SIMBA     
1 47941U 21022K   22309.88899794  .00009348  00000+0  60286-3 0  9998
2 47941  97.5153 206.3529 0021403  27.3649 105.6786 15.08323217 89300
BEESAT-6                
1 47957U 21022AB  22309.93378766  .00017177  00000+0  10358-2 0  9995
2 47957  97.5115 206.8120 0020388  26.7988  34.5968 15.10644313 89147
SMOG-1                  
1 47964U 21022AJ  22309.24199995  .00014440  00000+0  83635-3 0  9991
2 47964  97.5153 207.5073 0018682  19.4485 340.7454 15.12169123 88141
MMSATS-1                
1 47976U 98067SJ  22309.87861094  .00065151  00000+0  58274-3 0  9998
2 47976  51.6389 331.0719 0002744  57.0326   3.0404 15.67739204 92377
BCCSAT-1                
1 48041U 21022AK  22309.24670527  .00013018  00000+0  77771-3 0  9997
2 48041  97.5159 206.9455 0015458  19.6565 340.5258 15.11121038 88085
BEESAT-5                
1 48083U 21022AM  22309.69976034  .00018875  00000+0  11242-2 0  9990
2 48083  97.5111 206.6091 0020936  27.7790 355.8002 15.11061331 88242
BEESAT-7                
1 48084U 21022AN  22309.92061550  .00016994  00000+0  10193-2 0  9999
2 48084  97.5131 206.8211 0020737  27.2161  34.5906 15.10833243 87866
BEESAT-8                
1 48085U 21022AP  22309.93582266  .00012623  00000+0  76811-3 0  9998
2 48085  97.5193 206.8092 0020229  28.5179  31.5587 15.10388005 88427
LEDSAT                  
1 49069U 21073D   22309.14535593  .00008747  00000+0  53946-3 0  9997
2 49069  97.5118  19.2404 0026795 169.3532 190.8270 15.09869672 67057
HSU-SAT1                
1 53462U 98067UB  22309.41909039  .00070239  00000+0  89371-3 0  9992
2 53462  51.6393 354.3802 0008791  61.8478 298.3402 15.58665987 13230
FUTABA                  
1 53463U 98067UC  22309.83208302  .00093009  00000+0  10999-2 0  9993
2 53463  51.6382 351.8861 0009451  59.4169 300.7755 15.60463573 13307
TUMNANOSAT              
1 53464U 98067UD  22309.34931084  .00110686  00000+0  12249-2 0  9991
2 53464  51.6381 353.9118 0009821  55.2414 304.9503 15.62100748 13236
BEIJING 1               
1 28890U 05043A   22309.92132598  .00000505  00000+0  11100-3 0  9999
2 28890  98.1356  69.8610 0016471  91.7743 268.5330 14.61534183907808
HJ-1A                   
1 33320U 08041A   22309.92360470  .00001089  00000+0  15712-3 0  9997
2 33320  97.6661 336.2719 0022418 129.8194 230.4997 14.77975080763288
HJ-1B                   
1 33321U 08041B   22309.87497953  .00001772  00000+0  25001-3 0  9990
2 33321  97.6823 340.0742 0035023 148.4613 211.8703 14.77998064763271
YAOGAN 4                
1 33446U 08061A   22309.58528249  .00001185  00000+0  17259-3 0  9995
2 33446  97.8290 245.4968 0017221  41.2993 318.9517 14.77556600750430
DEIMOS-1                
1 35681U 09041A   22309.84496828  .00000504  00000+0  87271-4 0  9999
2 35681  97.6973 153.5631 0002863 113.9204 246.2314 14.72161465712570
UK-DMC 2                
1 35683U 09041C   22309.86226766  .00001213  00000+0  20250-3 0  9996
2 35683  97.7084 115.3934 0001529 109.7224 250.4158 14.71577186712305
RISAT 1                 
1 38248U 12017A   22309.65929906  .00005955  00000+0  34188-3 0  9998
2 38248  97.5512 319.5424 0005366 120.1221 240.0542 15.12898403580161
DMC3-FM1                
1 40715U 15032A   22309.89883927  .00001190  00000+0  15551-3 0  9998
2 40715  97.8249 193.7861 0007220  65.8687 294.3280 14.82262831394241
DMC3-FM2                
1 40716U 15032B   22309.92205900  .00001611  00000+0  20817-3 0  9991
2 40716  97.8295 194.5236 0009194  66.9161 293.3008 14.82258309394252
DMC3-FM3                
1 40717U 15032C   22309.87492999  .00000737  00000+0  98650-4 0  9991
2 40717  97.8337 195.4534 0011014  64.5196 295.7154 14.82309684394247
NOAA 15                 
1 25338U 98030A   22309.85832479  .00000219  00000+0  10971-3 0  9995
2 25338  98.6322 337.4685 0009426 242.4895 117.5328 14.26191918273173
DMSP 5D-3 F15 (USA 147) 
1 25991U 99067A   22309.89247782  .00000250  00000+0  14832-3 0  9997
2 25991  99.0635 303.9614 0010634 143.5599 334.2520 14.16593440183790
DMSP 5D-3 F16 (USA 172) 
1 28054U 03048A   22309.87660022  .00000205  00000+0  13266-3 0  9998
2 28054  99.0006 301.4954 0006390 280.2757 196.7552 14.13703122983010
NOAA 18                 
1 28654U 05018A   22309.85079665  .00000235  00000+0  15068-3 0  9993
2 28654  98.9362  20.0839 0013280 293.0632  66.9139 14.12801812899946
METEOSAT-9 (MSG-2)      
1 28912U 05049B   22309.85404619  .00000127  00000+0  00000+0 0  9991
2 28912   6.3365  65.3473 0002035 189.3561 143.5874  1.00277138 61804
EWS-G1 (GOES 13)        
1 29155U 06018A   22309.85709822  .00000036  00000+0  00000+0 0  9991
2 29155   0.9335  94.3874 0006796 134.3828 186.2039  1.00270543 30145
DMSP 5D-3 F17 (USA 191) 
1 29522U 06050A   22309.87120002  .00000195  00000+0  12508-3 0  9990
2 29522  98.7640 322.2612 0009281 213.8251 146.2331 14.14133078825890
FENGYUN 3A              
1 32958U 08026A   22309.65913649  .00000181  00000+0  10748-3 0  9994
2 32958  98.5231 266.6423 0008427 342.6440  17.4448 14.18757501748242
FENGYUN 2E              
1 33463U 08066A   22309.86206865 -.00000200  00000+0  00000+0 0  9997
2 33463   6.2181  64.4367 0000586  55.9276 321.3522  1.00265379 50862
NOAA 19                 
1 33591U 09005A   22309.86826553  .00000211  00000+0  13900-3 0  9993
2 33591  99.1333 346.8821 0014439 147.9175 212.2877 14.12632981708155
GOES 14                 
1 35491U 09033A   22309.60892573 -.00000097  00000+0  00000+0 0  9998
2 35491   0.2665 265.2281 0018364 314.3016 300.2733  1.00272377 48873
METEOR-M 1              
1 35865U 09049A   22309.72100321  .00000192  00000+0  10522-3 0  9995
2 35865  98.5486 275.7590 0002565 149.2120 210.9209 14.22374827681627
DMSP 5D-3 F18 (USA 210) 
1 35951U 09057A   22309.83046685  .00000276  00000+0  16905-3 0  9998
2 35951  98.7404 285.8472 0012044  47.6514 312.5677 14.13582543673105
GOES 15                 
1 36411U 10008A   22309.67580847  .00000052  00000+0  00000+0 0  9990
2 36411   0.2247 279.8558 0003824 269.0558 330.8747  1.00273541 46430
COMS 1                  
1 36744U 10032A   22309.79867392 -.00000346  00000+0  00000+0 0  9999
2 36744   1.4377  91.8233 0000983 136.0251 232.8518  1.00272355 37860
FENGYUN 3B              
1 37214U 10059A   22309.91711186  .00000016  00000+0  32875-4 0  9997
2 37214  99.0945 318.4172 0021455 318.1014  41.8532 14.14272637620958
SUOMI NPP               
1 37849U 11061A   22309.87763153  .00000126  00000+0  80664-4 0  9992
2 37849  98.7446 246.5270 0000999  86.9823 349.8236 14.19557984571269
FENGYUN 2F              
1 38049U 12002A   22309.79544750 -.00000358  00000+0  00000+0 0  9991
2 38049   4.1360  78.5848 0002136 271.5542  93.1036  1.00283791 39654
METEOSAT-10 (MSG-3)     
1 38552U 12035B   22309.77512979  .00000062  00000+0  00000+0 0  9993
2 38552   1.7499  48.2919 0001373 164.1573 121.1679  1.00280043 37622
METOP-B                 
1 38771U 12049A   22309.91806975  .00000162  00000+0  93967-4 0  9999
2 38771  98.7127   7.6514 0000959  58.0409 116.0948 14.21490177525832
